{"type": "FeatureCollection", "features": [ {"type": "Feature", "properties": {"norad_id": 33779, "name": "COSMOS 2251 DEB", "group": "cosmos-2251-debris", "lat": 70.29501932618213, "lon": -48.483751849545506, "alt_km": 658.8979369005237, "timestamp": "2025-12-05T14:45:15.689987+00:00", "meta": {"OBJECT_NAME": "COSMOS 2251 DEB", "OBJECT_ID": "1993-036U", "EPOCH": "2025-12-04T15:41:09.267072", "MEAN_MOTION": 14.70204736, "ECCENTRICITY": 0.001769, "INCLINATION": 74.0441, "RA_OF_ASC_NODE": 186.3979, "ARG_OF_PERICENTER": 221.4262, "MEAN_ANOMALY": 195.1809, "EPHEMERIS_TYPE": 0, "CLASSIFICATION_TYPE": "U", "NORAD_CAT_ID": 33779, "ELEMENT_SET_NO": 999, "REV_AT_EPOCH": 88409, "BSTAR": 0.0031911, "MEAN_MOTION_DOT": 0.00019298, "MEAN_MOTION_DDOT": 0}, "tle": {"line1": "1 33779U 93036U   25338.65357948  .00019298  00000+0  31911-2 0  9993", "line2": "2 33779  74.0441 186.3979 0017690 221.4262 195.1809 14.70204736884092"}}, "geometry": {"type": "Point", "coordinates": [-48.483751849545506, 70.29501932618213]}}, {"type": "Feature", "properties": {"norad_id": 33782, "name": "COSMOS 2251 DEB", "group": "cosmos-2251-debris", "lat": -73.96140713189675, "lon": -164.43492591090268, "alt_km": 763.5742525699598, "timestamp": "2025-12-05T14:45:15.689997+00:00", "meta": {"OBJECT_NAME": "COSMOS 2251 DEB", "OBJECT_ID": "1993-036X", "EPOCH": "2025-12-04T14:58:37.869024", "MEAN_MOTION": 14.4041132, "ECCENTRICITY": 0.0020403, "INCLINATION": 74.0329, "RA_OF_ASC_NODE": 292.5557, "ARG_OF_PERICENTER": 358.7505, "MEAN_ANOMALY": 174.7848, "EPHEMERIS_TYPE": 0, "CLASSIFICATION_TYPE": "U", "NORAD_CAT_ID": 33782, "ELEMENT_SET_NO": 999, "REV_AT_EPOCH": 88009, "BSTAR": 0.00082582, "MEAN_MOTION_DOT": 2.604e-05, "MEAN_MOTION_DDOT": 0}, "tle": {"line1": "1 33782U 93036X   25338.62404941  .00002604  00000+0  82582-3 0  9994", "line2": "2 33782  74.0329 292.5557 0020403 358.7505 174.7848 14.40411320880091"}}, "geometry": {"type": "Point", "coordinates": [-164.43492591090268, -73.96140713189675]}}, {"type": "Feature", "properties": {"norad_id": 33785, "name": "COSMOS 2251 DEB", "group": "cosmos-2251-debris", "lat": 67.6453850272011, "lon": 118.62647868955524, "alt_km": 645.580834859792, "timestamp": "2025-12-05T14:45:15.690008+00:00", "meta": {"OBJECT_NAME": "COSMOS 2251 DEB", "OBJECT_ID": "1993-036AA", "EPOCH": "2025-12-04T16:08:19.830336", "MEAN_MOTION": 14.70191208, "ECCENTRICITY": 0.0021548, "INCLINATION": 73.8679, "RA_OF_ASC_NODE": 75.739, "ARG_OF_PERICENTER": 17.0529, "MEAN_ANOMALY": 111.6689, "EPHEMERIS_TYPE": 0, "CLASSIFICATION_TYPE": "U", "NORAD_CAT_ID": 33785, "ELEMENT_SET_NO": 999, "REV_AT_EPOCH": 88388, "BSTAR": 0.0047949, "MEAN_MOTION_DOT": 0.0002908, "MEAN_MOTION_DDOT": 0}, "tle": {"line1": "1 33785U 93036AA  25338.67245174  .00029080  00000+0  47949-2 0  9997", "line2": "2 33785  73.8679  75.7390 0021548  17.0529 111.6689 14.70191208883883"}}, "geometry": {"type": "Point", "coordinates": [118.62647868955524, 67.6453850272011]}}, {"type": "Feature", "properties": {"norad_id": 33789, "name": "COSMOS 2251 DEB", "group": "cosmos-2251-debris", "lat": -1.244485282072883, "lon": -80.14573036667552, "alt_km": 791.1057814532332, "timestamp": "2025-12-05T14:45:15.690018+00:00", "meta": {"OBJECT_NAME": "COSMOS 2251 DEB", "OBJECT_ID": "1993-036AE", "EPOCH": "2025-12-04T02:26:01.956192", "MEAN_MOTION": 13.88764069, "ECCENTRICITY": 0.02404684, "INCLINATION": 74.0636, "RA_OF_ASC_NODE": 102.066, "ARG_OF_PERICENTER": 219.5889, "MEAN_ANOMALY": 319.9835, "EPHEMERIS_TYPE": 0, "CLASSIFICATION_TYPE": "U", "NORAD_CAT_ID": 33789, "ELEMENT_SET_NO": 999, "REV_AT_EPOCH": 84975, "BSTAR": 0.0013316112, "MEAN_MOTION_DOT": 2e-05, "MEAN_MOTION_DDOT": 0}, "tle": {"line1": "1 33789U 93036AE  25338.10141153  .00002000  00000+0  13316-2 0  9995", "line2": "2 33789  74.0636 102.0660 0240468 219.5889 319.9835 13.88764069849752"}}, "geometry": {"type": "Point", "coordinates": [-80.14573036667552, -1.244485282072883]}}, {"type": "Feature", "properties": {"norad_id": 33791, "name": "COSMOS 2251 DEB", "group": "cosmos-2251-debris", "lat": 68.59367411968113, "lon": -175.6359934740848, "alt_km": 759.0737917342667, "timestamp": "2025-12-05T14:45:15.690029+00:00", "meta": {"OBJECT_NAME": "COSMOS 2251 DEB", "OBJECT_ID": "1993-036AG", "EPOCH": "2025-12-04T15:42:14.176800", "MEAN_MOTION": 14.43060967, "ECCENTRICITY": 0.0030612, "INCLINATION": 74.1763, "RA_OF_ASC_NODE": 52.4702, "ARG_OF_PERICENTER": 250.9996, "MEAN_ANOMALY": 266.3224, "EPHEMERIS_TYPE": 0, "CLASSIFICATION_TYPE": "U", "NORAD_CAT_ID": 33791, "ELEMENT_SET_NO": 999, "REV_AT_EPOCH": 87935, "BSTAR": 0.0015484, "MEAN_MOTION_DOT": 5.199e-05, "MEAN_MOTION_DDOT": 0}, "tle": {"line1": "1 33791U 93036AG  25338.65433075  .00005199  00000+0  15484-2 0  9995", "line2": "2 33791  74.1763  52.4702 0030612 250.9996 266.3224 14.43060967879352"}}, "geometry": {"type": "Point", "coordinates": [-175.6359934740848, 68.59367411968113]}}, {"type": "Feature", "properties": {"norad_id": 33792, "name": "COSMOS 2251 DEB", "group": "cosmos-2251-debris", "lat": 46.64040106873428, "lon": 158.91583444742926, "alt_km": 952.4956863806783, "timestamp": "2025-12-05T14:45:15.690039+00:00", "meta": {"OBJECT_NAME": "COSMOS 2251 DEB", "OBJECT_ID": "1993-036AH", "EPOCH": "2025-12-04T12:05:38.033088", "MEAN_MOTION": 13.45805902, "ECCENTRICITY": 0.0426818, "INCLINATION": 73.9011, "RA_OF_ASC_NODE": 358.4962, "ARG_OF_PERICENTER": 64.688, "MEAN_ANOMALY": 81.5791, "EPHEMERIS_TYPE": 0, "CLASSIFICATION_TYPE": "U", "NORAD_CAT_ID": 33792, "ELEMENT_SET_NO": 999, "REV_AT_EPOCH": 82331, "BSTAR": 0.0011246, "MEAN_MOTION_DOT": 1.145e-05, "MEAN_MOTION_DDOT": 0}, "tle": {"line1": "1 33792U 93036AH  25338.50391242  .00001145  00000+0  11246-2 0  9998", "line2": "2 33792  73.9011 358.4962 0426818  64.6880  81.5791 13.45805902823310"}}, "geometry": {"type": "Point", "coordinates": [158.91583444742926, 46.64040106873428]}}, {"type": "Feature", "properties": {"norad_id": 33793, "name": "COSMOS 2251 DEB", "group": "cosmos-2251-debris", "lat": 22.66669292840215, "lon": 169.75827684115703, "alt_km": 778.5846113917924, "timestamp": "2025-12-05T14:45:15.690049+00:00", "meta": {"OBJECT_NAME": "COSMOS 2251 DEB", "OBJECT_ID": "1993-036AJ", "EPOCH": "2025-12-04T15:27:23.836032", "MEAN_MOTION": 14.2768171, "ECCENTRICITY": 0.0078229, "INCLINATION": 73.9802, "RA_OF_ASC_NODE": 164.6306, "ARG_OF_PERICENTER": 316.3245, "MEAN_ANOMALY": 119.2862, "EPHEMERIS_TYPE": 0, "CLASSIFICATION_TYPE": "U", "NORAD_CAT_ID": 33793, "ELEMENT_SET_NO": 999, "REV_AT_EPOCH": 87091, "BSTAR": 0.0012921, "MEAN_MOTION_DOT": 3.266e-05, "MEAN_MOTION_DDOT": 0}, "tle": {"line1": "1 33793U 93036AJ  25338.64402588  .00003266  00000+0  12921-2 0  9997", "line2": "2 33793  73.9802 164.6306 0078229 316.3245 119.2862 14.27681710870915"}}, "geometry": {"type": "Point", "coordinates": [169.75827684115703, 22.66669292840215]}}, {"type": "Feature", "properties": {"norad_id": 33795, "name": "COSMOS 2251 DEB", "group": "cosmos-2251-debris", "lat": 37.66195813768894, "lon": -101.42535566819785, "alt_km": 529.8129503214495, "timestamp": "2025-12-05T14:45:15.690059+00:00", "meta": {"OBJECT_NAME": "COSMOS 2251 DEB", "OBJECT_ID": "1993-036AL", "EPOCH": "2025-12-04T16:19:25.480992", "MEAN_MOTION": 15.05017525, "ECCENTRICITY": 0.0032928, "INCLINATION": 74.0323, "RA_OF_ASC_NODE": 93.2564, "ARG_OF_PERICENTER": 179.3235, "MEAN_ANOMALY": 299.6005, "EPHEMERIS_TYPE": 0, "CLASSIFICATION_TYPE": "U", "NORAD_CAT_ID": 33795, "ELEMENT_SET_NO": 999, "REV_AT_EPOCH": 89900, "BSTAR": 0.0033446, "MEAN_MOTION_DOT": 0.00048355, "MEAN_MOTION_DDOT": 0}, "tle": {"line1": "1 33795U 93036AL  25338.68015603  .00048355  00000+0  33446-2 0  9994", "line2": "2 33795  74.0323  93.2564 0032928 179.3235 299.6005 15.05017525899009"}}, "geometry": {"type": "Point", "coordinates": [-101.42535566819785, 37.66195813768894]}}, {"type": "Feature", "properties": {"norad_id": 33797, "name": "COSMOS 2251 DEB", "group": "cosmos-2251-debris", "lat": 72.82618473231327, "lon": 160.76523833004345, "alt_km": 660.7050274732292, "timestamp": "2025-12-05T14:45:15.690076+00:00", "meta": {"OBJECT_NAME": "COSMOS 2251 DEB", "OBJECT_ID": "1993-036AN", "EPOCH": "2025-12-04T15:47:58.485120", "MEAN_MOTION": 14.57795742, "ECCENTRICITY": 0.0061115, "INCLINATION": 74.0489, "RA_OF_ASC_NODE": 50.3178, "ARG_OF_PERICENTER": 140.5725, "MEAN_ANOMALY": 338.8444, "EPHEMERIS_TYPE": 0, "CLASSIFICATION_TYPE": "U", "NORAD_CAT_ID": 33797, "ELEMENT_SET_NO": 999, "REV_AT_EPOCH": 88867, "BSTAR": 0.0011189, "MEAN_MOTION_DOT": 5.225e-05, "MEAN_MOTION_DDOT": 0}, "tle": {"line1": "1 33797U 93036AN  25338.65831580  .00005225  00000+0  11189-2 0  9992", "line2": "2 33797  74.0489  50.3178 0061115 140.5725 338.8444 14.57795742888677"}}, "geometry": {"type": "Point", "coordinates": [160.76523833004345, 72.82618473231327]}}, {"type": "Feature", "properties": {"norad_id": 33798, "name": "COSMOS 2251 DEB", "group": "cosmos-2251-debris", "lat": -42.29788451112581, "lon": 134.0716357758127, "alt_km": 701.6115958390146, "timestamp": "2025-12-05T14:45:15.690097+00:00", "meta": {"OBJECT_NAME": "COSMOS 2251 DEB", "OBJECT_ID": "1993-036AP", "EPOCH": "2025-12-04T14:21:35.515008", "MEAN_MOTION": 14.44599344, "ECCENTRICITY": 0.0092483, "INCLINATION": 74.0277, "RA_OF_ASC_NODE": 151.0695, "ARG_OF_PERICENTER": 274.1906, "MEAN_ANOMALY": 156.838, "EPHEMERIS_TYPE": 0, "CLASSIFICATION_TYPE": "U", "NORAD_CAT_ID": 33798, "ELEMENT_SET_NO": 999, "REV_AT_EPOCH": 88476, "BSTAR": 0.00028714, "MEAN_MOTION_DOT": 1.017e-05, "MEAN_MOTION_DDOT": 0}, "tle": {"line1": "1 33798U 93036AP  25338.59832772  .00001017  00000+0  28714-3 0  9998", "line2": "2 33798  74.0277 151.0695 0092483 274.1906 156.8380 14.44599344884762"}}, "geometry": {"type": "Point", "coordinates": [134.0716357758127, -42.29788451112581]}}]}